RADUGA 18 [-]           
1 16497U 86007A   22230.39394380  .00000004  00000+0  00000+0 0  9998
2 16497  12.7852 331.2288 0076624 165.1845 229.2496  0.98810917132098
RADUGA 19 [-]           
1 17046U 86082A   22230.43816316 -.00000039  00000+0  00000+0 0  9994
2 17046  13.2110 335.1526 0014922 147.7693 223.9268  0.98459852129147
RADUGA 20 [-]           
1 17611U 87028A   22230.20003318 -.00000134  00000+0  00000+0 0  9994
2 17611  15.2245 338.6784 0032095 137.0947 231.4446  0.95961806124876
RADUGA 21 [-]           
1 18631U 87100A   22230.51672674  .00000105  00000+0  00000+0 0  9996
2 18631  13.2975 336.0179 0004681 129.2778 251.4977  1.00283756127065
RADUGA 22 [-]           
1 19596U 88095A   22230.74554334 -.00000360  00000+0  00000+0 0  9992
2 19596  13.2785 340.2967 0008646 137.8459 246.8719  1.00232855107630
RADUGA 23 [-]           
1 19928U 89030A   22230.47410358  .00000119  00000+0  00000+0 0  9999
2 19928  13.4246 342.1164 0023220 160.7261  32.6749  1.00323433120827
RADUGA-1 1 [-]          
1 20083U 89048A   22230.82053316 -.00000107  00000+0  00000+0 0  9996
2 20083  14.1764 345.1699 0023717 115.5217 266.9772  0.98707863117474
RADUGA 24 [-]           
1 20367U 89098A   22229.60188997 -.00000026  00000+0  00000+0 0  9994
2 20367  13.9989 344.3877 0003076 131.3571 133.4011  1.00208729118936
RADUGA 25 [-]           
1 20499U 90016A   22230.24493837 -.00000304  00000+0  00000+0 0  9995
2 20499  13.7679 345.0317 0006863 139.6082 228.4365  1.00194915118880
RADUGA 26 [-]           
1 21016U 90112A   22230.86881185 -.00000016  00000+0  00000+0 0  9993
2 21016  14.0785 348.2822 0008510  96.4862 258.2706  1.00314051116233
RADUGA-1 2 [-]          
1 21038U 90116A   22230.73875501  .00000085  00000+0  00000+0 0  9997
2 21038  14.1164 348.3561 0009807 103.4573 190.3358  1.00263851 33315
RADUGA 27 [-]           
1 21132U 91014A   22230.86984898  .00000077  00000+0  00000+0 0  9995
2 21132  14.6267 347.9094 0005229 105.8077 204.2046  1.00276253115280
RADUGA 28 [-]           
1 21821U 91087A   22230.82062582 -.00000331  00000+0  00000+0 0  9997
2 21821  14.3912 351.6239 0009344 123.6690 249.8791  1.00206239112302
RADUGA 29 [-]           
1 22557U 93013A   22230.50346858  .00000116  00000+0  00000+0 0  9991
2 22557  14.5930 355.8076 0008329 116.6025  65.7725  1.00340833107655
RADUGA 30 [-]           
1 22836U 93062A   22230.87134066 -.00000124  00000+0  00000+0 0  9991
2 22836  14.6327 357.7706 0001840  62.5964 296.5354  1.00258846 31974
RADUGA-1 3 [-]          
1 22981U 94008A   22230.87896492 -.00000318  00000+0  00000+0 0  9996
2 22981  14.7101 358.9215 0005669 107.5748 276.1567  1.00251092104468
RADUGA 31 [-]           
1 23010U 94012A   22230.72302894  .00000035  00000+0  00000+0 0  9992
2 23010  14.6792 358.9204 0006935  97.7793 186.4459  1.00324389104320
