[{"OBJECT_NAME":"RADUGA 18 [-]","OBJECT_ID":"1986-007A","EPOCH":"2022-08-18T09:27:16.744320","MEAN_MOTION":0.98810917,"ECCENTRICITY":0.0076624,"INCLINATION":12.7852,"RA_OF_ASC_NODE":331.2288,"ARG_OF_PERICENTER":165.1845,"MEAN_ANOMALY":229.2496,"EPHEMERIS_TYPE":0,"CLASSIFICATION_TYPE":"U","NORAD_CAT_ID":16497,"ELEMENT_SET_NO":999,"REV_AT_EPOCH":13209,"BSTAR":0,"MEAN_MOTION_DOT":4.0e-8,"MEAN_MOTION_DDOT":0},{"OBJECT_NAME":"RADUGA 19 [-]","OBJECT_ID":"1986-082A","EPOCH":"2022-08-18T10:30:57.297024","MEAN_MOTION":0.98459852,"ECCENTRICITY":0.0014922,"INCLINATION":13.211,"RA_OF_ASC_NODE":335.1526,"ARG_OF_PERICENTER":147.7693,"MEAN_ANOMALY":223.9268,"EPHEMERIS_TYPE":0,"CLASSIFICATION_TYPE":"U","NORAD_CAT_ID":17046,"ELEMENT_SET_NO":999,"REV_AT_EPOCH":12914,"BSTAR":0,"MEAN_MOTION_DOT":-3.9e-7,"MEAN_MOTION_DDOT":0},{"OBJECT_NAME":"RADUGA 20 [-]","OBJECT_ID":"1987-028A","EPOCH":"2022-08-18T04:48:02.866752","MEAN_MOTION":0.95961806,"ECCENTRICITY":0.0032095,"INCLINATION":15.2245,"RA_OF_ASC_NODE":338.6784,"ARG_OF_PERICENTER":137.0947,"MEAN_ANOMALY":231.4446,"EPHEMERIS_TYPE":0,"CLASSIFICATION_TYPE":"U","NORAD_CAT_ID":17611,"ELEMENT_SET_NO":999,"REV_AT_EPOCH":12487,"BSTAR":0,"MEAN_MOTION_DOT":-1.34e-6,"MEAN_MOTION_DDOT":0},{"OBJECT_NAME":"RADUGA 21 [-]","OBJECT_ID":"1987-100A","EPOCH":"2022-08-18T12:24:05.190336","MEAN_MOTION":1.00283756,"ECCENTRICITY":0.0004681,"INCLINATION":13.2975,"RA_OF_ASC_NODE":336.0179,"ARG_OF_PERICENTER":129.2778,"MEAN_ANOMALY":251.4977,"EPHEMERIS_TYPE":0,"CLASSIFICATION_TYPE":"U","NORAD_CAT_ID":18631,"ELEMENT_SET_NO":999,"REV_AT_EPOCH":12706,"BSTAR":0,"MEAN_MOTION_DOT":1.05e-6,"MEAN_MOTION_DDOT":0},{"OBJECT_NAME":"RADUGA 22 [-]","OBJECT_ID":"1988-095A","EPOCH":"2022-08-18T17:53:34.944576","MEAN_MOTION":1.00232855,"ECCENTRICITY":0.0008646,"INCLINATION":13.2785,"RA_OF_ASC_NODE":340.2967,"ARG_OF_PERICENTER":137.8459,"MEAN_ANOMALY":246.8719,"EPHEMERIS_TYPE":0,"CLASSIFICATION_TYPE":"U","NORAD_CAT_ID":19596,"ELEMENT_SET_NO":999,"REV_AT_EPOCH":10763,"BSTAR":0,"MEAN_MOTION_DOT":-3.6e-6,"MEAN_MOTION_DDOT":0},{"OBJECT_NAME":"RADUGA 23 [-]","OBJECT_ID":"1989-030A","EPOCH":"2022-08-18T11:22:42.549312","MEAN_MOTION":1.00323433,"ECCENTRICITY":0.002322,"INCLINATION":13.4246,"RA_OF_ASC_NODE":342.1164,"ARG_OF_PERICENTER":160.7261,"MEAN_ANOMALY":32.6749,"EPHEMERIS_TYPE":0,"CLASSIFICATION_TYPE":"U","NORAD_CAT_ID":19928,"ELEMENT_SET_NO":999,"REV_AT_EPOCH":12082,"BSTAR":0,"MEAN_MOTION_DOT":1.19e-6,"MEAN_MOTION_DDOT":0},{"OBJECT_NAME":"RADUGA-1 1 [-]","OBJECT_ID":"1989-048A","EPOCH":"2022-08-18T19:41:34.065024","MEAN_MOTION":0.98707863,"ECCENTRICITY":0.0023717,"INCLINATION":14.1764,"RA_OF_ASC_NODE":345.1699,"ARG_OF_PERICENTER":115.5217,"MEAN_ANOMALY":266.9772,"EPHEMERIS_TYPE":0,"CLASSIFICATION_TYPE":"U","NORAD_CAT_ID":20083,"ELEMENT_SET_NO":999,"REV_AT_EPOCH":11747,"BSTAR":0,"MEAN_MOTION_DOT":-1.07e-6,"MEAN_MOTION_DDOT":0},{"OBJECT_NAME":"RADUGA 24 [-]","OBJECT_ID":"1989-098A","EPOCH":"2022-08-17T14:26:43.293408","MEAN_MOTION":1.00208729,"ECCENTRICITY":0.0003076,"INCLINATION":13.9989,"RA_OF_ASC_NODE":344.3877,"ARG_OF_PERICENTER":131.3571,"MEAN_ANOMALY":133.4011,"EPHEMERIS_TYPE":0,"CLASSIFICATION_TYPE":"U","NORAD_CAT_ID":20367,"ELEMENT_SET_NO":999,"REV_AT_EPOCH":11893,"BSTAR":0,"MEAN_MOTION_DOT":-2.6e-7,"MEAN_MOTION_DDOT":0},{"OBJECT_NAME":"RADUGA 25 [-]","OBJECT_ID":"1990-016A","EPOCH":"2022-08-18T05:52:42.675168","MEAN_MOTION":1.00194915,"ECCENTRICITY":0.0006863,"INCLINATION":13.7679,"RA_OF_ASC_NODE":345.0317,"ARG_OF_PERICENTER":139.6082,"MEAN_ANOMALY":228.4365,"EPHEMERIS_TYPE":0,"CLASSIFICATION_TYPE":"U","NORAD_CAT_ID":20499,"ELEMENT_SET_NO":999,"REV_AT_EPOCH":11888,"BSTAR":0,"MEAN_MOTION_DOT":-3.04e-6,"MEAN_MOTION_DDOT":0},{"OBJECT_NAME":"RADUGA 26 [-]","OBJECT_ID":"1990-112A","EPOCH":"2022-08-18T20:51:05.343840","MEAN_MOTION":1.00314051,"ECCENTRICITY":0.000851,"INCLINATION":14.0785,"RA_OF_ASC_NODE":348.2822,"ARG_OF_PERICENTER":96.4862,"MEAN_ANOMALY":258.2706,"EPHEMERIS_TYPE":0,"CLASSIFICATION_TYPE":"U","NORAD_CAT_ID":21016,"ELEMENT_SET_NO":999,"REV_AT_EPOCH":11623,"BSTAR":0,"MEAN_MOTION_DOT":-1.6e-7,"MEAN_MOTION_DDOT":0},{"OBJECT_NAME":"RADUGA-1 2 [-]","OBJECT_ID":"1990-116A","EPOCH":"2022-08-18T17:43:48.432864","MEAN_MOTION":1.00263851,"ECCENTRICITY":0.0009807,"INCLINATION":14.1164,"RA_OF_ASC_NODE":348.3561,"ARG_OF_PERICENTER":103.4573,"MEAN_ANOMALY":190.3358,"EPHEMERIS_TYPE":0,"CLASSIFICATION_TYPE":"U","NORAD_CAT_ID":21038,"ELEMENT_SET_NO":999,"REV_AT_EPOCH":3331,"BSTAR":0,"MEAN_MOTION_DOT":8.5e-7,"MEAN_MOTION_DDOT":0},{"OBJECT_NAME":"RADUGA 27 [-]","OBJECT_ID":"1991-014A","EPOCH":"2022-08-18T20:52:34.951872","MEAN_MOTION":1.00276253,"ECCENTRICITY":0.0005229,"INCLINATION":14.6267,"RA_OF_ASC_NODE":347.9094,"ARG_OF_PERICENTER":105.8077,"MEAN_ANOMALY":204.2046,"EPHEMERIS_TYPE":0,"CLASSIFICATION_TYPE":"U","NORAD_CAT_ID":21132,"ELEMENT_SET_NO":999,"REV_AT_EPOCH":11528,"BSTAR":0,"MEAN_MOTION_DOT":7.7e-7,"MEAN_MOTION_DDOT":0},{"OBJECT_NAME":"RADUGA 28 [-]","OBJECT_ID":"1991-087A","EPOCH":"2022-08-18T19:41:42.070848","MEAN_MOTION":1.00206239,"ECCENTRICITY":0.0009344,"INCLINATION":14.3912,"RA_OF_ASC_NODE":351.6239,"ARG_OF_PERICENTER":123.669,"MEAN_ANOMALY":249.8791,"EPHEMERIS_TYPE":0,"CLASSIFICATION_TYPE":"U","NORAD_CAT_ID":21821,"ELEMENT_SET_NO":999,"REV_AT_EPOCH":11230,"BSTAR":0,"MEAN_MOTION_DOT":-3.31e-6,"MEAN_MOTION_DDOT":0},{"OBJECT_NAME":"RADUGA 29 [-]","OBJECT_ID":"1993-013A","EPOCH":"2022-08-18T12:04:59.685312","MEAN_MOTION":1.00340833,"ECCENTRICITY":0.0008329,"INCLINATION":14.593,"RA_OF_ASC_NODE":355.8076,"ARG_OF_PERICENTER":116.6025,"MEAN_ANOMALY":65.7725,"EPHEMERIS_TYPE":0,"CLASSIFICATION_TYPE":"U","NORAD_CAT_ID":22557,"ELEMENT_SET_NO":999,"REV_AT_EPOCH":10765,"BSTAR":0,"MEAN_MOTION_DOT":1.16e-6,"MEAN_MOTION_DDOT":0},{"OBJECT_NAME":"RADUGA 30 [-]","OBJECT_ID":"1993-062A","EPOCH":"2022-08-18T20:54:43.833024","MEAN_MOTION":1.00258846,"ECCENTRICITY":0.000184,"INCLINATION":14.6327,"RA_OF_ASC_NODE":357.7706,"ARG_OF_PERICENTER":62.5964,"MEAN_ANOMALY":296.5354,"EPHEMERIS_TYPE":0,"CLASSIFICATION_TYPE":"U","NORAD_CAT_ID":22836,"ELEMENT_SET_NO":999,"REV_AT_EPOCH":3197,"BSTAR":0,"MEAN_MOTION_DOT":-1.24e-6,"MEAN_MOTION_DDOT":0},{"OBJECT_NAME":"RADUGA-1 3 [-]","OBJECT_ID":"1994-008A","EPOCH":"2022-08-18T21:05:42.569088","MEAN_MOTION":1.00251092,"ECCENTRICITY":0.0005669,"INCLINATION":14.7101,"RA_OF_ASC_NODE":358.9215,"ARG_OF_PERICENTER":107.5748,"MEAN_ANOMALY":276.1567,"EPHEMERIS_TYPE":0,"CLASSIFICATION_TYPE":"U","NORAD_CAT_ID":22981,"ELEMENT_SET_NO":999,"REV_AT_EPOCH":10446,"BSTAR":0,"MEAN_MOTION_DOT":-3.18e-6,"MEAN_MOTION_DDOT":0},{"OBJECT_NAME":"RADUGA 31 [-]","OBJECT_ID":"1994-012A","EPOCH":"2022-08-18T17:21:09.700416","MEAN_MOTION":1.00324389,"ECCENTRICITY":0.0006935,"INCLINATION":14.6792,"RA_OF_ASC_NODE":358.9204,"ARG_OF_PERICENTER":97.7793,"MEAN_ANOMALY":186.4459,"EPHEMERIS_TYPE":0,"CLASSIFICATION_TYPE":"U","NORAD_CAT_ID":23010,"ELEMENT_SET_NO":999,"REV_AT_EPOCH":10432,"BSTAR":0,"MEAN_MOTION_DOT":3.5e-7,"MEAN_MOTION_DDOT":0}]